QIANFAN-25              
1 61558U 24185G   25210.56013222  .00000265  00000+0  15413-3 0  9995
2 61558  88.9790  93.6218 0008497  29.3988 330.7671 14.05750294 50373
QIANFAN-26              
1 61559U 24185H   25210.57491187  .00000227  00000+0  21481-3 0  9997
2 61559  88.9803  94.4643 0007907  67.5700 292.6303 13.77719460 49926
QIANFAN-27              
1 61560U 24185J   25210.59177292  .00000366  00000+0  14429-3 0  9997
2 61560  88.9792  92.9245 0009532  29.9082 330.2655 14.27120101 50742
QIANFAN-28              
1 61561U 24185K   25210.56299774  .00000672  00000+0  26665-3 0  9990
2 61561  88.9811  92.9208 0008600  32.4586 327.7136 14.27677340 50744
QIANFAN-29              
1 61562U 24185L   25210.53452806  .00000162  00000+0  23242-3 0  9997
2 61562  88.9799  95.3987 0012181  84.0182 276.2357 13.50954184 49408
QIANFAN-30              
1 61563U 24185M   25210.55442923  .00000153  00000+0  22141-3 0  9996
2 61563  88.9804  94.8726 0009673  71.8484 288.3719 13.49926155 49694
QIANFAN-31              
1 61564U 24185N   25210.58512178  .00000140  00000+0  17697-3 0  9996
2 61564  88.9786  94.8873 0009341  70.1319 290.0842 13.57904030 49681
QIANFAN-32              
1 61565U 24185P   25210.59852249  .00000155  00000+0  22245-3 0  9995
2 61565  88.9847  94.9610 0011459  92.5075 267.7388 13.50682704 49668
